{"type": "FeatureCollection", "features": [ {"type": "Feature", "properties": {"norad_id": 42738, "name": "QZS-2 (QZSS/PRN 194)", "group": "gnss", "lat": -36.614792013694675, "lon": -177.40950646059082, "alt_km": 32795.776312616086, "timestamp": "2025-12-10T20:49:52.797088+00:00", "meta": {"OBJECT_NAME": "QZS-2 (QZSS/PRN 194)", "OBJECT_ID": "2017-028A", "EPOCH": "2025-12-09T14:12:26.534592", "MEAN_MOTION": 1.00283879, "ECCENTRICITY": 0.07580465, "INCLINATION": 39.7194, "RA_OF_ASC_NODE": 245.9297, "ARG_OF_PERICENTER": 269.4439, "MEAN_ANOMALY": 278.0192, "EPHEMERIS_TYPE": 0, "CLASSIFICATION_TYPE": "U", "NORAD_CAT_ID": 42738, "ELEMENT_SET_NO": 999, "REV_AT_EPOCH": 572, "BSTAR": 0, "MEAN_MOTION_DOT": -1.94e-06, "MEAN_MOTION_DDOT": 0}, "tle": {"line1": "1 42738U 17028A   25343.59197378 -.00000194  00000+0  00000+0 0  9991", "line2": "2 42738  39.7194 245.9297 0758046 269.4439 278.0192  1.00283879  5725"}}, "geometry": {"type": "Point", "coordinates": [-177.40950646059082, -36.614792013694675]}}, {"type": "Feature", "properties": {"norad_id": 42917, "name": "QZS-3 (QZSS/PRN 199)", "group": "gnss", "lat": -0.04217535780878312, "lon": 159.33782338401704, "alt_km": 35788.366346458446, "timestamp": "2025-12-10T20:49:52.797100+00:00", "meta": {"OBJECT_NAME": "QZS-3 (QZSS/PRN 199)", "OBJECT_ID": "2017-048A", "EPOCH": "2025-12-10T15:02:22.064064", "MEAN_MOTION": 1.00272932, "ECCENTRICITY": 0.00020962, "INCLINATION": 0.0619, "RA_OF_ASC_NODE": 201.2827, "ARG_OF_PERICENTER": 64.9038, "MEAN_ANOMALY": 166.061, "EPHEMERIS_TYPE": 0, "CLASSIFICATION_TYPE": "U", "NORAD_CAT_ID": 42917, "ELEMENT_SET_NO": 999, "REV_AT_EPOCH": 3036, "BSTAR": 0, "MEAN_MOTION_DOT": -3.43e-06, "MEAN_MOTION_DDOT": 0}, "tle": {"line1": "1 42917U 17048A   25344.62664426 -.00000343  00000+0  00000+0 0  9996", "line2": "2 42917   0.0619 201.2827 0002096  64.9038 166.0610  1.00272932 30368"}}, "geometry": {"type": "Point", "coordinates": [159.33782338401704, -0.04217535780878312]}}, {"type": "Feature", "properties": {"norad_id": 42939, "name": "COSMOS 2522 (752)", "group": "gnss", "lat": -53.24954327350528, "lon": 157.65213813432132, "alt_km": 19130.3807169, "timestamp": "2025-12-10T20:49:52.797115+00:00", "meta": {"OBJECT_NAME": "COSMOS 2522 (752)", "OBJECT_ID": "2017-055A", "EPOCH": "2025-12-10T00:16:43.890240", "MEAN_MOTION": 2.13101818, "ECCENTRICITY": 0.0006628, "INCLINATION": 64.076, "RA_OF_ASC_NODE": 198.322, "ARG_OF_PERICENTER": 225.9279, "MEAN_ANOMALY": 134.088, "EPHEMERIS_TYPE": 0, "CLASSIFICATION_TYPE": "U", "NORAD_CAT_ID": 42939, "ELEMENT_SET_NO": 999, "REV_AT_EPOCH": 6394, "BSTAR": 0, "MEAN_MOTION_DOT": 4.5e-07, "MEAN_MOTION_DDOT": 0}, "tle": {"line1": "1 42939U 17055A   25344.01161910  .00000045  00000+0  00000+0 0  9999", "line2": "2 42939  64.0760 198.3220 0006628 225.9279 134.0880  2.13101818 63946"}}, "geometry": {"type": "Point", "coordinates": [157.65213813432132, -53.24954327350528]}}, {"type": "Feature", "properties": {"norad_id": 42965, "name": "QZS-4 (QZSS/PRN 195)", "group": "gnss", "lat": 3.641617146532286, "lon": 161.5690067396182, "alt_km": 35949.320307866445, "timestamp": "2025-12-10T20:49:52.797141+00:00", "meta": {"OBJECT_NAME": "QZS-4 (QZSS/PRN 195)", "OBJECT_ID": "2017-062A", "EPOCH": "2025-12-09T21:02:05.516736", "MEAN_MOTION": 1.00253343, "ECCENTRICITY": 0.07522017, "INCLINATION": 40.2272, "RA_OF_ASC_NODE": 345.9065, "ARG_OF_PERICENTER": 271.4859, "MEAN_ANOMALY": 273.624, "EPHEMERIS_TYPE": 0, "CLASSIFICATION_TYPE": "U", "NORAD_CAT_ID": 42965, "ELEMENT_SET_NO": 999, "REV_AT_EPOCH": 2990, "BSTAR": 0, "MEAN_MOTION_DOT": -3.57e-06, "MEAN_MOTION_DDOT": 0}, "tle": {"line1": "1 42965U 17062A   25343.87645274 -.00000357  00000+0  00000+0 0  9996", "line2": "2 42965  40.2272 345.9065 0752201 271.4859 273.6240  1.00253343 29905"}}, "geometry": {"type": "Point", "coordinates": [161.5690067396182, 3.641617146532286]}}, {"type": "Feature", "properties": {"norad_id": 43001, "name": "BEIDOU-3 M1 (C19)", "group": "gnss", "lat": 33.80223711178587, "lon": -136.95244583307627, "alt_km": 21548.404372775338, "timestamp": "2025-12-10T20:49:52.797183+00:00", "meta": {"OBJECT_NAME": "BEIDOU-3 M1 (C19)", "OBJECT_ID": "2017-069A", "EPOCH": "2025-12-10T02:59:44.287296", "MEAN_MOTION": 1.86230979, "ECCENTRICITY": 0.00090512, "INCLINATION": 56.5252, "RA_OF_ASC_NODE": 69.3201, "ARG_OF_PERICENTER": 303.7839, "MEAN_ANOMALY": 56.1523, "EPHEMERIS_TYPE": 0, "CLASSIFICATION_TYPE": "U", "NORAD_CAT_ID": 43001, "ELEMENT_SET_NO": 999, "REV_AT_EPOCH": 5508, "BSTAR": 0, "MEAN_MOTION_DOT": -5.2e-07, "MEAN_MOTION_DDOT": 0}, "tle": {"line1": "1 43001U 17069A   25344.12481814 -.00000052  00000+0  00000+0 0  9994", "line2": "2 43001  56.5252  69.3201 0009051 303.7839  56.1523  1.86230979 55089"}}, "geometry": {"type": "Point", "coordinates": [-136.95244583307627, 33.80223711178587]}}, {"type": "Feature", "properties": {"norad_id": 43002, "name": "BEIDOU-3 M2 (C20)", "group": "gnss", "lat": 0.3711199161302339, "lon": -110.90502520730715, "alt_km": 21543.933460573386, "timestamp": "2025-12-10T20:49:52.797204+00:00", "meta": {"OBJECT_NAME": "BEIDOU-3 M2 (C20)", "OBJECT_ID": "2017-069B", "EPOCH": "2025-12-09T12:37:45.819264", "MEAN_MOTION": 1.8623055, "ECCENTRICITY": 0.0006254, "INCLINATION": 56.5238, "RA_OF_ASC_NODE": 69.3764, "ARG_OF_PERICENTER": 332.6094, "MEAN_ANOMALY": 27.38, "EPHEMERIS_TYPE": 0, "CLASSIFICATION_TYPE": "U", "NORAD_CAT_ID": 43002, "ELEMENT_SET_NO": 999, "REV_AT_EPOCH": 5506, "BSTAR": 0, "MEAN_MOTION_DOT": -4.8e-07, "MEAN_MOTION_DDOT": 0}, "tle": {"line1": "1 43002U 17069B   25343.52622476 -.00000048  00000+0  00000+0 0  9994", "line2": "2 43002  56.5238  69.3764 0006254 332.6094  27.3800  1.86230550 55065"}}, "geometry": {"type": "Point", "coordinates": [-110.90502520730715, 0.3711199161302339]}}, {"type": "Feature", "properties": {"norad_id": 43055, "name": "GSAT0215 (GALILEO 19)", "group": "gnss", "lat": 55.12528132246766, "lon": -44.98054276752907, "alt_km": 23216.815347221745, "timestamp": "2025-12-10T20:49:52.797222+00:00", "meta": {"OBJECT_NAME": "GSAT0215 (GALILEO 19)", "OBJECT_ID": "2017-079A", "EPOCH": "2025-12-09T13:11:41.418816", "MEAN_MOTION": 1.70473866, "ECCENTRICITY": 0.00012854, "INCLINATION": 55.1311, "RA_OF_ASC_NODE": 226.7257, "ARG_OF_PERICENTER": 343.8684, "MEAN_ANOMALY": 16.2123, "EPHEMERIS_TYPE": 0, "CLASSIFICATION_TYPE": "U", "NORAD_CAT_ID": 43055, "ELEMENT_SET_NO": 999, "REV_AT_EPOCH": 4975, "BSTAR": 0, "MEAN_MOTION_DOT": 1.1e-07, "MEAN_MOTION_DDOT": 0}, "tle": {"line1": "1 43055U 17079A   25343.54978494  .00000011  00000+0  00000+0 0  9998", "line2": "2 43055  55.1311 226.7257 0001285 343.8684  16.2123  1.70473866 49750"}}, "geometry": {"type": "Point", "coordinates": [-44.98054276752907, 55.12528132246766]}}, {"type": "Feature", "properties": {"norad_id": 43056, "name": "GSAT0216 (GALILEO 20)", "group": "gnss", "lat": -55.13660797518056, "lon": 137.08822449629014, "alt_km": 23223.15298263654, "timestamp": "2025-12-10T20:49:52.797240+00:00", "meta": {"OBJECT_NAME": "GSAT0216 (GALILEO 20)", "OBJECT_ID": "2017-079B", "EPOCH": "2025-12-08T01:57:06.766848", "MEAN_MOTION": 1.70473892, "ECCENTRICITY": 0.00025149, "INCLINATION": 55.132, "RA_OF_ASC_NODE": 226.7661, "ARG_OF_PERICENTER": 318.3772, "MEAN_ANOMALY": 41.6956, "EPHEMERIS_TYPE": 0, "CLASSIFICATION_TYPE": "U", "NORAD_CAT_ID": 43056, "ELEMENT_SET_NO": 999, "REV_AT_EPOCH": 4974, "BSTAR": 0, "MEAN_MOTION_DOT": 1.9e-07, "MEAN_MOTION_DDOT": 0}, "tle": {"line1": "1 43056U 17079B   25342.08132832  .00000019  00000+0  00000+0 0  9993", "line2": "2 43056  55.1320 226.7661 0002514 318.3772  41.6956  1.70473892 49745"}}, "geometry": {"type": "Point", "coordinates": [137.08822449629014, -55.13660797518056]}}, {"type": "Feature", "properties": {"norad_id": 43057, "name": "GSAT0217 (GALILEO 21)", "group": "gnss", "lat": 35.582979084493495, "lon": 16.796629009296183, "alt_km": 23225.08668773555, "timestamp": "2025-12-10T20:49:52.797261+00:00", "meta": {"OBJECT_NAME": "GSAT0217 (GALILEO 21)", "OBJECT_ID": "2017-079C", "EPOCH": "2025-12-10T01:28:57.302112", "MEAN_MOTION": 1.704739, "ECCENTRICITY": 0.00027944, "INCLINATION": 55.1293, "RA_OF_ASC_NODE": 226.7095, "ARG_OF_PERICENTER": 343.7549, "MEAN_ANOMALY": 16.3188, "EPHEMERIS_TYPE": 0, "CLASSIFICATION_TYPE": "U", "NORAD_CAT_ID": 43057, "ELEMENT_SET_NO": 999, "REV_AT_EPOCH": 4976, "BSTAR": 0, "MEAN_MOTION_DOT": 9e-08, "MEAN_MOTION_DDOT": 0}, "tle": {"line1": "1 43057U 17079C   25344.06177433  .00000009  00000+0  00000+0 0  9999", "line2": "2 43057  55.1293 226.7095 0002794 343.7549  16.3188  1.70473900 49768"}}, "geometry": {"type": "Point", "coordinates": [16.796629009296183, 35.582979084493495]}}, {"type": "Feature", "properties": {"norad_id": 43058, "name": "GSAT0218 (GALILEO 22)", "group": "gnss", "lat": -0.21554570519331198, "lon": -133.45674489382083, "alt_km": 23217.515501385795, "timestamp": "2025-12-10T20:49:52.797279+00:00", "meta": {"OBJECT_NAME": "GSAT0218 (GALILEO 22)", "OBJECT_ID": "2017-079D", "EPOCH": "2025-12-09T02:36:28.325952", "MEAN_MOTION": 1.70473942, "ECCENTRICITY": 0.00028125, "INCLINATION": 55.1298, "RA_OF_ASC_NODE": 226.7335, "ARG_OF_PERICENTER": 306.3632, "MEAN_ANOMALY": 53.6978, "EPHEMERIS_TYPE": 0, "CLASSIFICATION_TYPE": "U", "NORAD_CAT_ID": 43058, "ELEMENT_SET_NO": 999, "REV_AT_EPOCH": 4977, "BSTAR": 0, "MEAN_MOTION_DOT": 1.2e-07, "MEAN_MOTION_DDOT": 0}, "tle": {"line1": "1 43058U 17079D   25343.10866118  .00000012  00000+0  00000+0 0  9993", "line2": "2 43058  55.1298 226.7335 0002812 306.3632  53.6978  1.70473942 49778"}}, "geometry": {"type": "Point", "coordinates": [-133.45674489382083, -0.21554570519331198]}}]}